{
    "links": {
        "self": "http://www.neowsapp.com/rest/v1/neo/3721905?api_key=iIulBulltgU6a56xZRHN4H3l9WmuAYTsLGpBGhQ2"
    },
    "id": "3721905",
    "neo_reference_id": "3721905",
    "name": "(2015 MY53)",
    "designation": "2015 MY53",
    "nasa_jpl_url": "http://ssd.jpl.nasa.gov/sbdb.cgi?sstr=3721905",
    "absolute_magnitude_h": 25.4,
    "estimated_diameter": {
        "kilometers": {
            "estimated_diameter_min": 0.022108281,
            "estimated_diameter_max": 0.0494356193
        },
        "meters": {
            "estimated_diameter_min": 22.1082810359,
            "estimated_diameter_max": 49.435619262
        },
        "miles": {
            "estimated_diameter_min": 0.0137374447,
            "estimated_diameter_max": 0.0307178602
        },
        "feet": {
            "estimated_diameter_min": 72.5337327539,
            "estimated_diameter_max": 162.1903570994
        }
    },
    "is_potentially_hazardous_asteroid": false,
    "close_approach_data": [
        {
            "close_approach_date": "2012-05-24",
            "close_approach_date_full": "2012-May-24 11:28",
            "epoch_date_close_approach": 1337858880000,
            "relative_velocity": {
                "kilometers_per_second": "13.6494965721",
                "kilometers_per_hour": "49138.187659465",
                "miles_per_hour": "30532.5588820714"
            },
            "miss_distance": {
                "astronomical": "0.2873636803",
                "lunar": "111.7844716367",
                "kilometers": "42988994.488240961",
                "miles": "26712122.5174128218"
            },
            "orbiting_body": "Earth"
        },
        {
            "close_approach_date": "2015-07-07",
            "close_approach_date_full": "2015-Jul-07 13:22",
            "epoch_date_close_approach": 1436275320000,
            "relative_velocity": {
                "kilometers_per_second": "5.891563439",
                "kilometers_per_hour": "21209.6283805431",
                "miles_per_hour": "13178.838256788"
            },
            "miss_distance": {
                "astronomical": "0.0595574405",
                "lunar": "23.1678443545",
                "kilometers": "8909666.241451735",
                "miles": "5536209.884974543"
            },
            "orbiting_body": "Earth"
        },
        {
            "close_approach_date": "2018-08-11",
            "close_approach_date_full": "2018-Aug-11 23:20",
            "epoch_date_close_approach": 1534029600000,
            "relative_velocity": {
                "kilometers_per_second": "13.3400637538",
                "kilometers_per_hour": "48024.2295135666",
                "miles_per_hour": "29840.3886108048"
            },
            "miss_distance": {
                "astronomical": "0.2748766532",
                "lunar": "106.9270180948",
                "kilometers": "41120961.831448684",
                "miles": "25551380.8487884792"
            },
            "orbiting_body": "Earth"
        },
        {
            "close_approach_date": "2018-10-07",
            "close_approach_date_full": "2018-Oct-07 09:21",
            "epoch_date_close_approach": 1538904060000,
            "relative_velocity": {
                "kilometers_per_second": "9.0721449828",
                "kilometers_per_hour": "32659.7219382574",
                "miles_per_hour": "20293.4811121355"
            },
            "miss_distance": {
                "astronomical": "0.0767962299",
                "lunar": "29.8737334311",
                "kilometers": "11488552.417070313",
                "miles": "7138655.4481157994"
            },
            "orbiting_body": "Mars"
        },
        {
            "close_approach_date": "2027-05-18",
            "close_approach_date_full": "2027-May-18 16:46",
            "epoch_date_close_approach": 1810658760000,
            "relative_velocity": {
                "kilometers_per_second": "10.3469532166",
                "kilometers_per_hour": "37249.0315797406",
                "miles_per_hour": "23145.0996502005"
            },
            "miss_distance": {
                "astronomical": "0.0045994126",
                "lunar": "1.7891715014",
                "kilometers": "688062.328211162",
                "miles": "427542.1053595556"
            },
            "orbiting_body": "Mars"
        }
    ],
    "orbital_data": {
        "orbit_id": "16",
        "orbit_determination_date": "2017-04-06 08:33:02",
        "first_observation_date": "2015-06-19",
        "last_observation_date": "2015-08-18",
        "data_arc_in_days": 60,
        "observations_used": 45,
        "orbit_uncertainty": "6",
        "minimum_orbit_intersection": ".0590105",
        "jupiter_tisserand_invariant": "3.583",
        "epoch_osculation": "2459000.5",
        "eccentricity": ".4897859863825164",
        "semi_major_axis": "2.102077266409618",
        "inclination": "1.709152370182829",
        "ascending_node_longitude": "138.881470579382",
        "orbital_period": "1113.195494708463",
        "perihelion_distance": "1.07250927902892",
        "perihelion_argument": "142.857691589722",
        "aphelion_distance": "3.131645253790317",
        "perihelion_time": "2459434.102483519667",
        "mean_anomaly": "219.7758481694532",
        "mean_motion": ".3233933318192966",
        "equinox": "J2000",
        "orbit_class": {
            "orbit_class_type": "AMO",
            "orbit_class_description": "Near-Earth asteroid orbits similar to that of 1221 Amor",
            "orbit_class_range": "1.017 AU < q (perihelion) < 1.3 AU"
        }
    },
    "is_sentry_object": false
}